NORAD_CAT_ID,OBJECT_NAME,OBJECT_TYPE,EPOCH,MEAN_MOTION,ECCENTRICITY,INCLINATION,RA_OF_ASC_NODE,ARG_OF_PERICENTER,MEAN_ANOMALY,BSTAR,MEAN_MOTION_DOT,MEAN_MOTION_DDOT,TLE_LINE0,TLE_LINE1,TLE_LINE2,SEMIMAJOR_AXIS,PERIOD,APOGEE,PERIGEE,DECAYED
52096.0,STARLINK-3717,PAYLOAD,2022-12-02 11:05:45,15.08849175,0.0002499,53.2195,35.7245,34.3584,325.757,0.00012835,1.755e-05,0.0,0 STARLINK-3717,1 52096U 22029J   22336.46233259  .00001755  00000-0  12835-3 0  9997,2 52096  53.2195  35.7245 0002499  34.3584 325.7570 15.08849175 40647,6917.852,95.437,541.446,537.989,0.0
52096.0,STARLINK-3717,PAYLOAD,2022-12-03 10:56:33,15.08836578,0.0002529,53.2191,31.264,29.5336,330.5799,-2.024e-05,-6.11e-06,0.0,0 STARLINK-3717,1 52096U 22029J   22337.45594582 -.00000611  00000-0 -20240-4 0  9998,2 52096  53.2191  31.2640 0002529  29.5336 330.5799 15.08836578 40794,6917.891,95.438,541.505,538.006,0.0
52096.0,STARLINK-3717,PAYLOAD,2022-12-03 12:31:56,15.08837913,0.0002557,53.2192,30.9664,29.4537,330.6599,-1.3281e-05,-5e-06,0.0,0 STARLINK-3717,1 52096U 22029J   22337.52218479 -.00000500  00000-0 -13281-4 0  9998,2 52096  53.2192  30.9664 0002557  29.4537 330.6599 15.08837913 40805,6917.887,95.438,541.521,537.9830000000002,0.0
52096.0,STARLINK-3717,PAYLOAD,2022-12-03 20:28:52,15.08830935,0.0002555,53.2187,29.4795,28.79,331.3233,-3.1303e-05,-7.86e-06,0.0,0 STARLINK-3717,1 52096U 22029J   22337.85339042 -.00000786  00000-0 -31303-4 0  9995,2 52096  53.2187  29.4795 0002555  28.7900 331.3233 15.08830935 40856,6917.908,95.438,541.5409999999998,538.006,0.0
52096.0,STARLINK-3717,PAYLOAD,2022-12-04 12:22:43,15.088415,0.0002729,53.219,26.5059,26.9802,333.1332,-2.2689e-05,-6.5e-06,0.0,0 STARLINK-3717,1 52096U 22029J   22338.51578652 -.00000650  00000-0 -22689-4 0  9998,2 52096  53.2190  26.5059 0002729  26.9802 333.1332 15.08841500 40956,6917.876,95.437,541.629,537.8530000000002,0.0
52096.0,STARLINK-3717,PAYLOAD,2022-12-05 04:16:35,15.08839418,0.0002648,53.219,23.5319,28.5651,331.5485,9.433e-05,1.213e-05,0.0,0 STARLINK-3717,1 52096U 22029J   22339.17818462  .00001213  00000-0  94330-4 0  9993,2 52096  53.2190  23.5319 0002648  28.5651 331.5485 15.08839418 41050,6917.882,95.438,541.5790000000002,537.915,0.0
52096.0,STARLINK-3717,PAYLOAD,2022-12-05 16:59:39,15.08847118,0.0002725,53.2192,21.1527,29.8,330.3147,0.00013276,1.825e-05,0.0,0 STARLINK-3717,1 52096U 22029J   22339.70809825  .00001825  00000-0  13276-3 0  9993,2 52096  53.2192  21.1527 0002725  29.8000 330.3147 15.08847118 41132,6917.859,95.437,541.609,537.839,0.0
52096.0,STARLINK-3717,PAYLOAD,2022-12-05 20:10:26,15.08847019,0.0002782,53.2193,20.558000000000003,30.5125,329.6029,0.00011195,1.494e-05,0.0,0 STARLINK-3717,1 52096U 22029J   22339.84057877  .00001494  00000-0  11195-3 0  9990,2 52096  53.2193  20.5580 0002782  30.5125 329.6029 15.08847019 41157,6917.859,95.437,541.648,537.799,0.0
52096.0,STARLINK-3717,PAYLOAD,2022-12-06 10:28:54,15.08842622,0.0002634,53.2197,17.8821,29.9078,330.2064,8.598799999999999e-05,1.0800000000000003e-05,0.0,0 STARLINK-3717,1 52096U 22029J   22340.43674131  .00001080  00000-0  85988-4 0  9998,2 52096  53.2197  17.8821 0002634  29.9078 330.2064 15.08842622 41245,6917.871999999999,95.437,541.56,537.915,0.0
52096.0,STARLINK-3717,PAYLOAD,2022-12-07 13:30:28,15.08831674,0.0002755,53.2193,12.8268,29.205,330.9096,-0.00010698,-1.99e-05,0.0,0 STARLINK-3717,1 52096U 22029J   22341.56283557 -.00001990  00000-0 -10698-3 0  9998,2 52096  53.2193  12.8268 0002755  29.2050 330.9096 15.08831674 41414,6917.906,95.438,541.677,537.865,0.0
52096.0,STARLINK-3717,PAYLOAD,2022-12-07 19:52:00,15.08844255,0.0002113,53.2207,11.6343,21.8277,338.2805,-0.00012026,-2.202e-05,0.0,0 STARLINK-3717,1 52096U 22029J   22341.82778595 -.00002202  00000-0 -12026-3 0  9992,2 52096  53.2207  11.6343 0002113  21.8277 338.2805 15.08844255 41450,6917.8669999999975,95.437,541.194,538.271,0.0
52096.0,STARLINK-3717,PAYLOAD,2022-12-08 08:35:05,15.0884034,0.0002808,53.2206,9.2616,15.3615,344.7462,-8.1571e-06,-4.18e-06,0.0,0 STARLINK-3717,1 52096U 22029J   22342.35770729 -.00000418  00000-0 -81571-5 0  9992,2 52096  53.2206   9.2616 0002808  15.3615 344.7462 15.08840340 41531,6917.879,95.438,541.687,537.802,0.0
52096.0,STARLINK-3717,PAYLOAD,2022-12-09 05:15:05,15.08843728,0.0002776,53.2193,5.3936,26.5256,333.5878,0.00019998,2.896e-05,0.0,0 STARLINK-3717,1 52096U 22029J   22343.21881480  .00002896  00000-0  19998-3 0  9997,2 52096  53.2193   5.3936 0002776  26.5256 333.5878 15.08843728 41661,6917.869000000002,95.437,541.654,537.814,0.0
52096.0,STARLINK-3717,PAYLOAD,2022-12-09 08:25:52,15.08830716,0.0002815,53.2187,4.8006,27.5848,332.5293,7.3002e-05,8.73e-06,0.0,0 STARLINK-3717,1 52096U 22029J   22343.35130601  .00000873  00000-0  73002-4 0  9994,2 52096  53.2187   4.8006 0002815  27.5848 332.5293 15.08830716 41683,6917.909000000002,95.438,541.721,537.826,0.0
52096.0,STARLINK-3717,PAYLOAD,2022-12-10 06:41:18,15.08830916,0.0003058,53.2199,0.6403,25.8161,334.2984,-6.559300000000001e-05,-1.332e-05,0.0,0 STARLINK-3717,1 52096U 22029J   22344.27868132 -.00001332  00000-0 -65593-4 0  9992,2 52096  53.2199   0.6403 0003058  25.8161 334.2984 15.08830916 41824,6917.908,95.438,541.889,537.658,0.0
52096.0,STARLINK-3717,PAYLOAD,2022-12-11 01:45:54,15.08839466,0.000279,53.2184,357.0672,24.5803,335.5322,-1.1427e-05,-4.7e-06,0.0,0 STARLINK-3717,1 52096U 22029J   22345.07355180 -.00000470  00000-0 -11427-4 0  9994,2 52096  53.2184 357.0672 0002790  24.5803 335.5322 15.08839466 41948,6917.882,95.438,541.677,537.817,0.0
52096.0,STARLINK-3717,PAYLOAD,2022-12-11 12:53:36,15.08845518,0.0002848,53.2179,354.9858,23.2239,336.8882,0.0001861,2.675e-05,0.0,0 STARLINK-3717,1 52096U 22029J   22345.53722877  .00002675  00000-0  18610-3 0  9993,2 52096  53.2179 354.9858 0002848  23.2239 336.8882 15.08845518 42016,6917.864000000001,95.437,541.6990000000002,537.758,0.0
52096.0,STARLINK-3717,PAYLOAD,2022-12-11 20:50:32,15.08839784,0.0002778,53.2176,353.4987,25.8263,334.2868,0.00018068,2.588e-05,0.0,0 STARLINK-3717,1 52096U 22029J   22345.86843441  .00002588  00000-0  18068-3 0  9990,2 52096  53.2176 353.4987 0002778  25.8263 334.2868 15.08839784 42066,6917.880999999999,95.438,541.668,537.8240000000002,0.0
52096.0,STARLINK-3717,PAYLOAD,2022-12-12 11:09:00,15.08838177,0.0002715,53.2175,350.8223,26.3375,333.7754,1.752e-05,-1e-07,0.0,0 STARLINK-3717,1 52096U 22029J   22346.46459409 -.00000010  00000-0  17520-4 0  9996,2 52096  53.2175 350.8223 0002715  26.3375 333.7754 15.08838177 42153,6917.886,95.438,541.629,537.873,0.0
52096.0,STARLINK-3717,PAYLOAD,2022-12-12 12:44:24,15.08839759,0.0002737,53.2176,350.5251,27.0143,333.0992,6.0465e-05,6.74e-06,0.0,0 STARLINK-3717,1 52096U 22029J   22346.53083414  .00000674  00000-0  60465-4 0  9994,2 52096  53.2176 350.5251 0002737  27.0143 333.0992 15.08839759 42162,6917.880999999999,95.438,541.64,537.8530000000002,0.0
52096.0,STARLINK-3717,PAYLOAD,2022-12-12 15:55:10,15.08841931,0.0002768,53.2177,349.9305,26.8748,333.2387,0.00010693,1.414e-05,0.0,0 STARLINK-3717,1 52096U 22029J   22346.66331371  .00001414  00000-0  10693-3 0  9996,2 52096  53.2177 349.9305 0002768  26.8748 333.2387 15.08841931 42184,6917.874,95.437,541.654,537.825,0.0
52096.0,STARLINK-3717,PAYLOAD,2022-12-13 12:35:11,15.08840976,0.0002865,53.2176,346.0648,28.454,331.6608,0.0001132,1.514e-05,0.0,0 STARLINK-3717,1 52096U 22029J   22347.52443581  .00001514  00000-0  11320-3 0  9998,2 52096  53.2176 346.0648 0002865  28.4540 331.6608 15.08840976 42318,6917.877,95.437,541.724,537.76,0.0
52096.0,STARLINK-3717,PAYLOAD,2022-12-13 17:21:21,15.08832667,0.0002882,53.2177,345.1729,28.7295,331.3856,-3.9489e-05,-9.17e-06,0.0,0 STARLINK-3717,1 52096U 22029J   22347.72315993 -.00000917  00000-0 -39489-4 0  9990,2 52096  53.2177 345.1729 0002882  28.7295 331.3856 15.08832667 42341,6917.903,95.438,541.762,537.774,0.0
52096.0,STARLINK-3717,PAYLOAD,2022-12-13 20:32:07,15.08833763,0.0002938,53.2177,344.5783,27.9217,332.1932,-2.4793e-05,-6.83e-06,0.0,0 STARLINK-3717,1 52096U 22029J   22347.85563980 -.00000683  00000-0 -24793-4 0  9997,2 52096  53.2177 344.5783 0002938  27.9217 332.1932 15.08833763 42365,6917.899,95.438,541.797,537.732,0.0
52096.0,STARLINK-3717,PAYLOAD,2022-12-14 09:15:11,15.08847992,0.0002865,53.218,342.1992,29.4368,330.6785,0.00018856,2.714e-05,0.0,0 STARLINK-3717,1 52096U 22029J   22348.38555438  .00002714  00000-0  18856-3 0  9992,2 52096  53.2180 342.1992 0002865  29.4368 330.6785 15.08847992 42445,6917.856,95.437,541.703,537.739,0.0
52096.0,STARLINK-3717,PAYLOAD,2022-12-14 12:25:58,15.0884366,0.0002888,53.2179,341.6046,29.1497,330.9656,0.00010415,1.3699999999999998e-05,0.0,0 STARLINK-3717,1 52096U 22029J   22348.51803680  .00001370  00000-0  10415-3 0  9992,2 52096  53.2179 341.6046 0002888  29.1497 330.9656 15.08843660 42462,6917.869000000002,95.437,541.732,537.736,0.0
52096.0,STARLINK-3717,PAYLOAD,2022-12-14 17:12:07,15.08841149,0.0002934,53.218,340.7127,29.8705,330.2454,0.0001628,2.304e-05,0.0,0 STARLINK-3717,1 52096U 22029J   22348.71675884  .00002304  00000-0  16280-3 0  9991,2 52096  53.2180 340.7127 0002934  29.8705 330.2454 15.08841149 42497,6917.877,95.437,541.7719999999998,537.712,0.0
52096.0,STARLINK-3717,PAYLOAD,2022-12-14 20:22:54,15.0884391,0.0002931,53.2179,340.1179,29.1842,330.9314,0.00019581,2.8300000000000014e-05,0.0,0 STARLINK-3717,1 52096U 22029J   22348.84923711  .00002830  00000-0  19581-3 0  9991,2 52096  53.2179 340.1179 0002931  29.1842 330.9314 15.08843910 42511,6917.868,95.437,541.761,537.706,0.0
52096.0,STARLINK-3717,PAYLOAD,2022-12-15 10:41:22,15.08844544,0.0002845,53.2186,337.4415,29.364,330.7511,0.00014234,1.978e-05,0.0,0 STARLINK-3717,1 52096U 22029J   22349.44539388  .00001978  00000-0  14234-3 0  9993,2 52096  53.2186 337.4415 0002845  29.3640 330.7511 15.08844544 42604,6917.866,95.437,541.7,537.763,0.0
